NORAD_CAT_ID,OBJECT_NAME,OBJECT_TYPE,EPOCH,MEAN_MOTION,ECCENTRICITY,INCLINATION,RA_OF_ASC_NODE,ARG_OF_PERICENTER,MEAN_ANOMALY,BSTAR,MEAN_MOTION_DOT,MEAN_MOTION_DDOT,TLE_LINE0,TLE_LINE1,TLE_LINE2,SEMIMAJOR_AXIS,PERIOD,APOGEE,PERIGEE,DECAYED
55961.0,STARLINK-5933,PAYLOAD,2024-02-01 09:44:21,14.98330374,0.0002811,70.0002,38.9641,270.514,89.5697,-3.0272e-05,-4.54e-06,0.0,0 STARLINK-5933,1 55961U 23037AZ  24032.40580428 -.00000454  00000-0 -30272-4 0  9996,2 55961  70.0002  38.9641 0002811 270.5140  89.5697 14.98330374 49547,6950.192,96.107,574.01,570.103,0.0
55961.0,STARLINK-5933,PAYLOAD,2024-02-02 03:21:50,14.98328316,0.000286,69.9999,37.112,268.6067,91.4764,-5.5076e-05,-7.5e-06,0.0,0 STARLINK-5933,1 55961U 23037AZ  24033.14016577 -.00000750  00000-0 -55076-4 0  9995,2 55961  69.9999  37.1120 0002860 268.6067  91.4764 14.98328316 49991,6950.198,96.107,574.051,570.075,0.0
55961.0,STARLINK-5933,PAYLOAD,2024-02-02 09:46:22,14.98328993,0.0002847,70.0001,36.4388,268.7124,91.3709,-4.2307e-05,-5.98e-06,0.0,0 STARLINK-5933,1 55961U 23037AZ  24033.40720518 -.00000598  00000-0 -42307-4 0  9994,2 55961  70.0001  36.4388 0002847 268.7124  91.3709 14.98328993 49692,6950.196,96.107,574.04,570.082,0.0
55961.0,STARLINK-5933,PAYLOAD,2024-02-03 03:23:51,14.98329844,0.0002902,70.0,34.5873,269.0528,91.0298,1.9294e-05,1.37e-06,0.0,0 STARLINK-5933,1 55961U 23037AZ  24034.14156273  .00000137  00000-0  19294-4 0  9993,2 55961  70.0000  34.5873 0002902 269.0528  91.0298 14.98329844 50141,6950.193,96.107,574.075,570.041,0.0
55961.0,STARLINK-5933,PAYLOAD,2024-02-03 09:48:23,14.98331229,0.0002882,70.0002,33.9141,268.9135,91.1694,3.5601e-05,3.32e-06,0.0,0 STARLINK-5933,1 55961U 23037AZ  24034.40860141  .00000332  00000-0  35601-4 0  9995,2 55961  70.0002  33.9141 0002882 268.9135  91.1694 14.98331229 49849,6950.189,96.107,574.057,570.051,0.0
55961.0,STARLINK-5933,PAYLOAD,2024-02-04 03:25:51,14.98330264,0.0002848,70.0004,32.0633,264.5943,95.4891,4.1903e-05,4.07e-06,0.0,0 STARLINK-5933,1 55961U 23037AZ  24035.14296109  .00000407  00000-0  41903-4 0  9999,2 55961  70.0004  32.0633 0002848 264.5943  95.4891 14.98330264 50293,6950.192,96.107,574.036,570.078,0.0
55961.0,STARLINK-5933,PAYLOAD,2024-02-04 09:50:23,14.98331885,0.0002829,70.0005,31.3899,264.929,95.1546,5.7337e-05,5.91e-06,0.0,0 STARLINK-5933,1 55961U 23037AZ  24035.40999945  .00000591  00000-0  57337-4 0  9998,2 55961  70.0005  31.3899 0002829 264.9290  95.1546 14.98331885 49997,6950.187,96.107,574.018,570.086,0.0
55961.0,STARLINK-5933,PAYLOAD,2024-02-05 03:27:52,14.98330075,0.0002731,70.0008,29.5383,264.6418,95.4429,-1.3967e-05,-2.6e-06,0.0,0 STARLINK-5933,1 55961U 23037AZ  24036.14436184 -.00000260  00000-0 -13967-4 0  9997,2 55961  70.0008  29.5383 0002731 264.6418  95.4429 14.98330075 50443,6950.193,96.107,573.956,570.16,0.0
55961.0,STARLINK-5933,PAYLOAD,2024-02-05 09:52:25,14.9833078,0.0002715,70.0009,28.8653,264.7589,95.3261,-5.3963e-06,-1.57e-06,0.0,0 STARLINK-5933,1 55961U 23037AZ  24036.41140105 -.00000157  00000-0 -53963-5 0  9998,2 55961  70.0009  28.8653 0002715 264.7589  95.3261 14.98330780 50141,6950.19,96.107,573.942,570.169,0.0
55961.0,STARLINK-5933,PAYLOAD,2024-02-06 03:29:53,14.98332575,0.0002722,70.001,27.0137,262.236,97.849,-1.8471e-06,-1.15e-06,0.0,0 STARLINK-5933,1 55961U 23037AZ  24037.14575832 -.00000115  00000-0 -18471-5 0  9997,2 55961  70.0010  27.0137 0002722 262.2360  97.8490 14.98332575 50593,6950.185,96.107,573.942,570.158,0.0
55961.0,STARLINK-5933,PAYLOAD,2024-02-06 08:18:17,14.98333213,0.0002709,70.0011,26.5089,262.3136,97.7715,6.3619e-06,-1.7e-07,0.0,0 STARLINK-5933,1 55961U 23037AZ  24037.34603734 -.00000017  00000-0  63619-5 0  9996,2 55961  70.0011  26.5089 0002709 262.3136  97.7715 14.98333213 50286,6950.183,96.107,573.931,570.165,0.0
55961.0,STARLINK-5933,PAYLOAD,2024-02-07 03:31:54,14.98330082,0.00027,70.0012,24.4892,259.7339,100.3515,8.9256e-06,1.4e-07,0.0,0 STARLINK-5933,1 55961U 23037AZ  24038.14715799  .00000014  00000-0  89256-5 0  9991,2 55961  70.0012  24.4892 0002700 259.7339 100.3515 14.98330082 50743,6950.193,96.107,573.934,570.181,0.0
55961.0,STARLINK-5933,PAYLOAD,2024-02-07 08:20:18,14.983308,0.0002685,70.0013,23.9843,259.2507,100.835,1.7038e-05,1.1e-06,0.0,0 STARLINK-5933,1 55961U 23037AZ  24038.34743717  .00000110  00000-0  17038-4 0  9999,2 55961  70.0013  23.9843 0002685 259.2507 100.8350 14.98330800 50434,6950.19,96.107,573.922,570.189,0.0
55961.0,STARLINK-5933,PAYLOAD,2024-02-07 16:20:59,14.98327732,0.0002737,70.0012,23.1417,272.0827,88.0018,-4.0839e-05,-5.8e-06,0.0,0 STARLINK-5933,1 55961U 23037AZ  24038.68124138 -.00000580  00000-0 -40839-4 0  9994,2 55961  70.0012  23.1417 0002737 272.0827  88.0018 14.98327732 50481,6950.2,96.107,573.967,570.163,0.0
55961.0,STARLINK-5933,PAYLOAD,2024-02-08 03:33:55,14.98327264,0.0002756,70.0011,21.9633,271.6046,88.4797,-4.6695e-05,-6.5e-06,0.0,0 STARLINK-5933,1 55961U 23037AZ  24039.14856223 -.00000650  00000-0 -46695-4 0  9997,2 55961  70.0011  21.9633 0002756 271.6046  88.4797 14.98327264 50898,6950.201,96.107,573.982,570.151,0.0
55961.0,STARLINK-5933,PAYLOAD,2024-02-08 08:22:19,14.98328388,0.0002888,70.0008,21.4582,269.1113,90.9715,-4.8473e-05,-6.71e-06,0.0,0 STARLINK-5933,1 55961U 23037AZ  24039.34884129 -.00000671  00000-0 -48473-4 0  9994,2 55961  70.0008  21.4582 0002888 269.1113  90.9715 14.98328388 50587,6950.198,96.107,574.07,570.056,0.0
55961.0,STARLINK-5933,PAYLOAD,2024-02-09 08:24:20,14.98334264,0.0002938,70.0008,18.9335,269.4131,90.6691,2.8621e-05,2.49e-06,0.0,0 STARLINK-5933,1 55961U 23037AZ  24040.35023536  .00000249  00000-0  28621-4 0  9996,2 55961  70.0008  18.9335 0002938 269.4131  90.6691 14.98334264 51078,6950.18,96.107,574.087,570.003,0.0
55961.0,STARLINK-5933,PAYLOAD,2024-02-10 03:37:57,14.98324562,0.0002962,70.0009,16.9134,269.5578,90.5241,1.6261e-05,1.01e-06,0.0,0 STARLINK-5933,1 55961U 23037AZ  24041.15136233  .00000101  00000-0  16261-4 0  9998,2 55961  70.0009  16.9134 0002962 269.5578  90.5241 14.98324562 51190,6950.21,96.107,574.133,570.016,0.0
55961.0,STARLINK-5933,PAYLOAD,2024-02-10 08:26:21,14.98329099,0.0002833,70.0013,16.4085,267.1951,92.8884,2.7462e-05,2.35e-06,0.0,0 STARLINK-5933,1 55961U 23037AZ  24041.35163954  .00000235  00000-0  27462-4 0  9993,2 55961  70.0013  16.4085 0002833 267.1951  92.8884 14.98329099 50884,6950.196,96.107,574.03,570.092,0.0
55961.0,STARLINK-5933,PAYLOAD,2024-02-10 22:51:34,14.98330499,0.0002708,70.0016,14.8942,264.0593,96.0258,-1.2359e-05,-2.4e-06,0.0,0 STARLINK-5933,1 55961U 23037AZ  24041.95248017 -.00000240  00000-0 -12359-4 0  9990,2 55961  70.0016  14.8942 0002708 264.0593  96.0258 14.98330499 50977,6950.191,96.107,573.938,570.174,0.0
55961.0,STARLINK-5933,PAYLOAD,2024-02-11 03:39:58,14.98330896,0.0002718,70.0016,14.3891,263.4386,96.6464,-1.1166e-05,-2.26e-06,0.0,0 STARLINK-5933,1 55961U 23037AZ  24042.15275961 -.00000226  00000-0 -11166-4 0  9990,2 55961  70.0016  14.3891 0002718 263.4386  96.6464 14.98330896 51347,6950.19,96.107,573.944,570.166,0.0
55961.0,STARLINK-5933,PAYLOAD,2024-02-11 08:28:22,14.98334252,0.0002606,70.0022,13.8849,269.1756,90.9104,4.7951e-05,4.79e-06,0.0,0 STARLINK-5933,1 55961U 23037AZ  24042.35303693  .00000479  00000-0  47951-4 0  9995,2 55961  70.0022  13.8849 0002606 269.1756  90.9104 14.98334252 51035,6950.18,96.107,573.856,570.234,0.0
55961.0,STARLINK-5933,PAYLOAD,2024-02-12 06:54:14,14.98336234,0.0002521,70.0021,11.5278,268.2179,91.8691,0.00012338,1.38e-05,0.0,0 STARLINK-5933,1 55961U 23037AZ  24043.28767175  .00001380  00000-0  12338-3 0  9999,2 55961  70.0021  11.5278 0002521 268.2179  91.8691 14.98336234 51516,6950.174,96.107,573.791,570.286,0.0
55961.0,STARLINK-5933,PAYLOAD,2024-02-12 22:55:35,14.98329595,0.0002708,70.0021,9.845,263.5574,96.5277,-2.9286e-07,-9.6e-07,0.0,0 STARLINK-5933,1 55961U 23037AZ  24043.95527719 -.00000096  00000-0 -29286-6 0  9999,2 55961  70.0021   9.8450 0002708 263.5574  96.5277 14.98329595 51279,6950.194,96.107,573.941,570.177,0.0
55961.0,STARLINK-5933,PAYLOAD,2024-02-13 03:44:00,14.98327109,0.0002708,70.0015,9.3392,265.5247,94.5602,-4.0265e-05,-5.73e-06,0.0,0 STARLINK-5933,1 55961U 23037AZ  24044.15556021 -.00000573  00000-0 -40265-4 0  9998,2 55961  70.0015   9.3392 0002708 265.5247  94.5602 14.98327109 51641,6950.202,96.107,573.949,570.185,0.0
55961.0,STARLINK-5933,PAYLOAD,2024-02-13 08:32:24,14.98331495,0.0002921,70.0008,8.8331,266.8738,93.2086,-3.4448e-06,-1.34e-06,0.0,0 STARLINK-5933,1 55961U 23037AZ  24044.35583623 -.00000134  00000-0 -34448-5 0  9998,2 55961  70.0008   8.8331 0002921 266.8738  93.2086 14.98331495 51337,6950.188,96.107,574.083,570.023,0.0
55961.0,STARLINK-5933,PAYLOAD,2024-02-13 22:57:37,14.98318976,0.0003093,70.0007,7.318,269.422,90.6585,6.37e-05,6.67e-06,0.0,0 STARLINK-5933,1 55961U 23037AZ  24044.95668131  .00000667  00000-0  63700-4 0  9993,2 55961  70.0007   7.3180 0003093 269.4220  90.6585 14.98318976 51422,6950.227,96.108,574.242,569.942,0.0
55961.0,STARLINK-5933,PAYLOAD,2024-02-14 03:46:00,14.98333491,0.000294,70.0007,6.8138,264.894,95.1883,-1.7223e-05,-2.98e-06,0.0,0 STARLINK-5933,1 55961U 23037AZ  24045.15695508 -.00000298  00000-0 -17223-4 0  9995,2 55961  70.0007   6.8138 0002940 264.8940  95.1883 14.98333491 51797,6950.182,96.107,574.09,570.004,0.0
55961.0,STARLINK-5933,PAYLOAD,2024-02-14 06:58:16,14.98337711,0.0002829,70.0011,6.4772,263.774,96.3097,3.7183e-05,3.51e-06,0.0,0 STARLINK-5933,1 55961U 23037AZ  24045.29047070  .00000351  00000-0  37183-4 0  9990,2 55961  70.0011   6.4772 0002829 263.7740  96.3097 14.98337711 51478,6950.169,96.107,574.0,570.068,0.0
55961.0,STARLINK-5933,PAYLOAD,2024-02-14 22:59:38,14.98323132,0.0002738,70.0009,4.7937,268.3103,91.7743,3.0454e-06,-5.7e-07,0.0,0 STARLINK-5933,1 55961U 23037AZ  24045.95808079 -.00000057  00000-0  30454-5 0  9996,2 55961  70.0009   4.7937 0002738 268.3103  91.7743 14.98323132 51572,6950.214,96.107,573.982,570.176,0.0
